0 DELTA 1 DEB
1 19594U 78026HN  13282.45289917  .00003897  00000-0  23131-2 0  7719
2 19594 098.7070 280.2093 0137540 095.1038 266.5844 14.03431493 49090
0 DELTA 1 DEB
1 19594U 78026HN  13283.95006025  .00004252  00000-0  25218-2 0  7727
2 19594 098.7068 281.6433 0137509 090.9639 270.7286 14.03437206 49304
0 DELTA 1 DEB
1 19594U 78026HN  13285.94625761  .00003982  00000-0  23625-2 0  7732
2 19594 098.7067 283.5547 0137431 085.4156 276.2694 14.03451176 49583
0 DELTA 1 DEB
1 19594U 78026HN  13287.44339106  .00004301  00000-0  25492-2 0  7745
2 19594 098.7064 284.9888 0137452 081.2837 280.3872 14.03461287 49797
0 DELTA 1 DEB
1 19594U 78026HN  13288.79792609  .00005378  00000-0  31808-2 0  7759
2 19594 098.7065 286.2856 0137445 077.5355 284.1152 14.03475531 49984
0 DELTA 1 DEB
1 19594U 78026HN  13290.43760941  .00005652  00000-0  33405-2 0  7768
2 19594 098.7066 287.8557 0137391 072.9863 288.6307 14.03489964 50217
0 DELTA 1 DEB
1 19594U 78026HN  13292.21985173  .00004983  00000-0  29481-2 0  7778
2 19594 098.7068 289.5626 0137315 068.0153 293.5541 14.03505543 50463
0 DELTA 1 DEB
1 19594U 78026HN  13294.21593602  .00005787  00000-0  34184-2 0  7782
2 19594 098.7075 291.4745 0137286 062.4736 299.0306 14.03523070 50743
0 DELTA 1 DEB
1 19594U 78026HN  13295.78426822  .00006286  00000-0  37088-2 0  7796
2 19594 098.7089 292.9771 0137497 058.1066 303.3394 14.03538836 50961
